{"type":"FeatureCollection","features":[{"type":"Feature","id":1,"geometry":{"type":"Point","coordinates":[28.217990931592219,-25.669511493085114]},"properties":{"OBJECTID":1,"Route_Label":"WONDERBOOM 2","Route_description":"Bosman, Boom, Paul Kruger, Lavender, Sefako Makhatho (Zambesi), Parsley, Marjoram and Saliehout to cnr Bloulelie.","Status":"Approved","Route_ID":"WBM2","STOP_TYPE":"To Location","STOP_TYPE_LOCATION":"City","Departure_Desc":"T"}},{"type":"Feature","id":2,"geometry":{"type":"Point","coordinates":[28.235129171426447,-25.658915535160478]},"properties":{"OBJECTID":2,"Route_Label":"WONDERBOOM 1","Route_description":"Bosman, Boom, Paul Kruger, Lavender, Sefako Makgatho (Zambesi), Parsley, Rosemary, George Anton, Marico, Miriana, Steenbras, Orsula, Roeloe, Watsonia, Jan Bantjies and HO Mönnig.","Status":"Approved","Route_ID":"WBM1","STOP_TYPE":"To Location","STOP_TYPE_LOCATION":"City","Departure_Desc":"T"}},{"type":"Feature","id":4,"geometry":{"type":"Point","coordinates":[28.232234056734857,-25.648457983899796]},"properties":{"OBJECTID":4,"Route_Label":"DOORNPOORT 1","Route_description":"Bosman, Boom, Paul Kruger, Lavender, Sefako Makgatho, Vinko, Luce, Konavle, Nerina, Babiana, Pointsettia, Ruspolia, Zambesi, Veronica, 6th Road, Dr Swanepoel, Amandelboom, Wattle, Katjiepiering, Foxglove, Airport and Olienhoutboom Road.","Status":"Approved","Route_ID":"DNP1","STOP_TYPE":"To Location","STOP_TYPE_LOCATION":"City","Departure_Desc":"T"}},{"type":"Feature","id":5,"geometry":{"type":"Point","coordinates":[28.27048588229184,-25.68953444430732]},"properties":{"OBJECTID":5,"Route_Label":"WONDERBOOM 3","Route_description":"Bosman, Boom, Paul Kruger, Lavender, Braam Pretorius, Gryshout, Kaberoe, Geranium, Granaat, Veronica, Stephan, Dr Van der Merwe, Braam Pretorius, Enkeldoorn and Besembiesie .","Status":"Approved","Route_ID":"WBM3","STOP_TYPE":"To Location","STOP_TYPE_LOCATION":"City","Departure_Desc":"T"}},{"type":"Feature","id":6,"geometry":{"type":"Point","coordinates":[28.255046193607431,-25.674793989570144]},"properties":{"OBJECTID":6,"Route_Label":"WONDERBOOM 4","Route_description":"Bosman, Boom, Paul Kruger, Lavender, Braam Pretorius, Gryshout, Kaberoe, Geranium, Granaat, Veronica, Sefako Makgatho (Zambesi) and Enkeldoorn ","Status":"Approved","Route_ID":"WBM4","STOP_TYPE":"To Location","STOP_TYPE_LOCATION":"City","Departure_Desc":"T"}},{"type":"Feature","id":7,"geometry":{"type":"Point","coordinates":[28.248845169642532,-25.655087608678858]},"properties":{"OBJECTID":7,"Route_Label":"DOORNPOORT 2","Route_description":"Bosman, Boom, Paul Kruger, Lavender, Braam Pretorius, Marija, Sefako Makgatho, Veronica, 6th Road, Dr Swanepoel, Amandelboom.","Status":"Approved","Route_ID":"DNP2","STOP_TYPE":"To Location","STOP_TYPE_LOCATION":"City","Departure_Desc":"T"}},{"type":"Feature","id":8,"geometry":{"type":"Point","coordinates":[28.271508552525898,-25.651505053374375]},"properties":{"OBJECTID":8,"Route_Label":"DOORNPOORT 3","Route_description":"Bosman, Boom, Paul Kruger, Lavender, Sefako Makgatho, Breed, Rivea, up to Hessea Street.","Status":"Approved","Route_ID":"DNP3","STOP_TYPE":"To Location","STOP_TYPE_LOCATION":"City","Departure_Desc":"T"}},{"type":"Feature","id":9,"geometry":{"type":"Point","coordinates":[28.1569999837632,-25.695961188527832]},"properties":{"OBJECTID":9,"Route_Label":"MOUNTAIN VIEW 2","Route_description":"Bosman, Boom, Paul Kruge, Franzina, Smook, Booysens, Bruins, Burlington, Green, Lambert Lee, Denyssen, Barnato, Daphne, cnr Daniel and Daphne.","Status":"Approved","Route_ID":"MNV2","STOP_TYPE":"To Location","STOP_TYPE_LOCATION":"City","Departure_Desc":"T"}},{"type":"Feature","id":10,"geometry":{"type":"Point","coordinates":[28.276325987461863,-25.704319995935069]},"properties":{"OBJECTID":10,"Route_Label":"EASTLYNNE 1","Route_description":"Madiba (Vermeulen), Steve Biko, Soutpansberg, CR Swart, Lynette, Anna Wilson, Stormvoël, Baviaanspoort, Stegman Street.","Status":"Approved","Route_ID":"ELN1","STOP_TYPE":"To Location","STOP_TYPE_LOCATION":"City","Departure_Desc":"T"}},{"type":"Feature","id":11,"geometry":{"type":"Point","coordinates":[28.308151974400104,-25.707878400333691]},"properties":{"OBJECTID":11,"Route_Label":"EASTLYNNE 2","Route_description":"Madiba (Vermeulen), Steve Biko, Soutpansberg, Wilkinson, Gane, Hastie, Rayner, Bellis, CR Swart, Lynette, Anna Wilson, Stormvoël, Hans Coverdale West, St Joseph, Hans Coverdale East, John Sydney, Hans Coverdale West, Soutrivier Street.","Status":"Approved","Route_ID":"ELN2","STOP_TYPE":"To Location","STOP_TYPE_LOCATION":"City","Departure_Desc":"T"}},{"type":"Feature","id":12,"geometry":{"type":"Point","coordinates":[28.274994812428353,-25.788258727005044]},"properties":{"OBJECTID":12,"Route_Label":"BROOKLYN 9","Route_description":"Madiba, Sisulu, Jeff Masemola, Rissik, Justice Mahomed, Brooklyn, Hazelwood, 26th, Selati, Garsfontein, Lois.","Status":"Approved","Route_ID":"BKN9","STOP_TYPE":"To Location","STOP_TYPE_LOCATION":"City","Departure_Desc":"T"}},{"type":"Feature","id":13,"geometry":{"type":"Point","coordinates":[28.287025327516503,-25.80280630551141]},"properties":{"OBJECTID":13,"Route_Label":"BROOKLYN 10","Route_description":"Thabo Sehume, Jeff Masemola, Rissik, Justice Mahomed, Atterbury, Lois, Garsfontein, Corobay, Tucker, Gina, Corobay, Garsfontein, Anton van Wouw, Beethoven, Chopin, Duvernoy. ","Status":"Approved","Route_ID":"BKN10","STOP_TYPE":"To Location","STOP_TYPE_LOCATION":"City","Departure_Desc":"T"}},{"type":"Feature","id":14,"geometry":{"type":"Point","coordinates":[28.241637450145756,-25.776626738279305]},"properties":{"OBJECTID":14,"Route_Label":"BROOKLYN 8","Route_description":"Madiba (Vermeulen), Du Toit, Francis Baard, Park, Festival, Arcadia, Hilda, Park, Jan Shoba, Fehrsen, Waterkloof, Crown as far as Julius Jeppe.","Status":"Approved","Route_ID":"BKN8","STOP_TYPE":"To Location","STOP_TYPE_LOCATION":"City","Departure_Desc":"T"}},{"type":"Feature","id":15,"geometry":{"type":"Point","coordinates":[28.235181370768174,-25.770338823405687]},"properties":{"OBJECTID":15,"Route_Label":"BROOKLYN 5","Route_description":"Madiba (Vermeulen), Du Toit, Francis Baard, Park, Festival, Arcadia, Hilda, Park, Jan Shoba.","Status":"Approved","Route_ID":"BKN5","STOP_TYPE":"To Location","STOP_TYPE_LOCATION":"City","Departure_Desc":"T"}},{"type":"Feature","id":17,"geometry":{"type":"Point","coordinates":[28.17917798850527,-25.72715235745947]},"properties":{"OBJECTID":17,"Route_Label":"CAPITAL PARK","Route_description":"Bosman, Boom, Paul Kruger, Flower, 2nd.","Status":"Approved","Route_ID":"CPK","STOP_TYPE":"To Location","STOP_TYPE_LOCATION":"City","Departure_Desc":"T"}},{"type":"Feature","id":18,"geometry":{"type":"Point","coordinates":[28.191287473570384,-25.859428220372774]},"properties":{"OBJECTID":18,"Route_Label":"CENTURION","Route_description":"Pretorius, Sophie du Bruyn, Kgosi Mampuru, Old Johannesburg Road, Trichardt, Snake Valley, Trichardt, Selborne, Zircon, North, Glover, Rabie, Jean, Lenchen and Embankment.","Status":"Approved","Route_ID":"CEN","STOP_TYPE":"To Location","STOP_TYPE_LOCATION":"City","Departure_Desc":"T"}},{"type":"Feature","id":19,"geometry":{"type":"Point","coordinates":[28.23956650040245,-25.744379872967492]},"properties":{"OBJECTID":19,"Route_Label":"COLBYN 4","Route_description":"Madiba (Vermeulen), Du Toit, Helen Joseph, Stanza Bopape, Hill, Francis Baard, Jan Shoba.","Status":"Approved","Route_ID":"COL4","STOP_TYPE":"To Location","STOP_TYPE_LOCATION":"City","Departure_Desc":"T"}},{"type":"Feature","id":20,"geometry":{"type":"Point","coordinates":[28.247638779425817,-25.739724288428846]},"properties":{"OBJECTID":20,"Route_Label":"COLBYN 5","Route_description":"Madiba (Vermeulen), Du Toit, Helen Joseph, Stanza Bopape, Hill, Francis Baard, Jan Shoba, Gordon and Amos.","Status":"Approved","Route_ID":"COL5","STOP_TYPE":"To Location","STOP_TYPE_LOCATION":"City","Departure_Desc":"T"}},{"type":"Feature","id":21,"geometry":{"type":"Point","coordinates":[28.275948153127999,-25.727835617930101]},"properties":{"OBJECTID":21,"Route_Label":"COLBYN 6","Route_description":"Madiba (Vermeulen), Du Toit, Helen Joseph, Stanza Bopape, Hill, Francis Baard, Jan Shoba, Gordon and Amos, Route back to Pretoria, East to Cresswell.","Status":"Approved","Route_ID":"COL6","STOP_TYPE":"To Location","STOP_TYPE_LOCATION":"City","Departure_Desc":"T"}},{"type":"Feature","id":22,"geometry":{"type":"Point","coordinates":[28.137632880295495,-25.741270611329604]},"properties":{"OBJECTID":22,"Route_Label":"DANVILLE 2","Route_description":"Pretorius, Kgosi Mampuru, WF Nkomo, Transoranje, Ashley,  Albertyn, Dan, Ferris, Van Broekhuizen, Osler, Marsburg, Morkel, Sytze Wierda and Pretoria West Hospital.","Status":"Approved","Route_ID":"DAN2","STOP_TYPE":"To Location","STOP_TYPE_LOCATION":"City","Departure_Desc":"T"}},{"type":"Feature","id":23,"geometry":{"type":"Point","coordinates":[28.125212737652014,-25.742472680152197]},"properties":{"OBJECTID":23,"Route_Label":"DANVILLE 1","Route_description":"Pretorius, Kgosi Mampuru, WF Nkomo, Transoranje, Ashley, Albertyn, south of Van den Berg.","Status":"Approved","Route_ID":"DAN1","STOP_TYPE":"To Location","STOP_TYPE_LOCATION":"City","Departure_Desc":"T"}},{"type":"Feature","id":24,"geometry":{"type":"Point","coordinates":[28.143426793461096,-25.748951436089527]},"properties":{"OBJECTID":24,"Route_Label":"DANVILLE 3","Route_description":"Pretorius, Kgosi Mampuru, WF Nkomo, Molengraaf Street.","Status":"Approved","Route_ID":"DAN3","STOP_TYPE":"To Location","STOP_TYPE_LOCATION":"City","Departure_Desc":"T"}},{"type":"Feature","id":25,"geometry":{"type":"Point","coordinates":[28.132868605333158,-25.738183138791069]},"properties":{"OBJECTID":25,"Route_Label":"DANVILLE 4","Route_description":"Pretorius, Kgosi Mampuru, WF Nkomo, Transoranje, Ashley, Dan, Ferris, Van Broekhuizen, Osler, Marsburg.","Status":"Approved","Route_ID":"DAN4","STOP_TYPE":"To Location","STOP_TYPE_LOCATION":"City","Departure_Desc":"T"}},{"type":"Feature","id":26,"geometry":{"type":"Point","coordinates":[28.143440480951419,-25.734805110780975]},"properties":{"OBJECTID":26,"Route_Label":"DANVILLE 5","Route_description":"Pretorius, Kgosi Mampuru, WF Nkomo, Transoranje, Ashley, Dan, Ferris, Van Broekhuizen, Osler, Marsburg, Morkel, Staatsartillerie Road.","Status":"Approved","Route_ID":"DAN5","STOP_TYPE":"To Location","STOP_TYPE_LOCATION":"City","Departure_Desc":"T"}},{"type":"Feature","id":27,"geometry":{"type":"Point","coordinates":[28.096699940274643,-25.809697532487654]},"properties":{"OBJECTID":27,"Route_Label":"ERASMIA 2","Route_description":"Pretorius, Sophie De Bruyn, Nana Sita, Charlotte Maxeke, Oliewen, Trans Oranje, Quagga, Main, Helena Street.","Status":"Approved","Route_ID":"ERS2","STOP_TYPE":"To Location","STOP_TYPE_LOCATION":"City","Departure_Desc":"T"}},{"type":"Feature","id":28,"geometry":{"type":"Point","coordinates":[28.106695163160136,-25.797603120719309]},"properties":{"OBJECTID":28,"Route_Label":"ERASMIA 3","Route_description":"Pretorius, Sophie De Bruyn, Nana Sita, Charlotte Maxeke, Quagga, bypass to Laudium, 2nd Avenue, Cuprene west of 2nd Avenue.","Status":"Approved","Route_ID":"ERS3","STOP_TYPE":"To Location","STOP_TYPE_LOCATION":"City","Departure_Desc":"T"}},{"type":"Feature","id":29,"geometry":{"type":"Point","coordinates":[28.302097799276684,-25.778903168051492]},"properties":{"OBJECTID":29,"Route_Label":"FAERIE GLEN","Route_description":"Madiba (Vermeulen), Du Toit, Francis Baard, Park, Troye, Robert Sobukwe, Bourke, Spuy, Walton Jameson, University, Justice Mohamed, Roper, Lynnwood, Glenwood as far as Manitoba Drive.","Status":"Approved","Route_ID":"FRG","STOP_TYPE":"To Location","STOP_TYPE_LOCATION":"City","Departure_Desc":"T"}},{"type":"Feature","id":30,"geometry":{"type":"Point","coordinates":[28.307194465773758,-25.793283058256467]},"properties":{"OBJECTID":30,"Route_Label":"GARSFONTEIN 1","Route_description":"Madiba (Vermeulen), Du Toit, Francis Baard (Schoeman), Park, Troye, Robert Sobukwe (Esselen), Bourke, Spuy, Walten Jameson, University, Justice Mahomed, Roper, Lynnwood, Brooklyn, Anderson, 11th Street, Atterbury, Jacqueline, Trevor Gething, Albert Adamson, Snowy Walker, Alsation, Jacqueline, Adela, Cicely, Elvira, Hesteleen, Windsor Road.","Status":"Approved","Route_ID":"GRS1","STOP_TYPE":"To Location","STOP_TYPE_LOCATION":"City","Departure_Desc":"T"}},{"type":"Feature","id":31,"geometry":{"type":"Point","coordinates":[28.310706192167896,-25.803445919358936]},"properties":{"OBJECTID":31,"Route_Label":"GARSFONTEIN 2","Route_description":"Madiba (Vermeulen), Du Toit, Francis Baard (Schoeman), Park, Troye, Robert Sobukwe (Esselen), Bourke, Spuy, Walten Jameson, University, Justice Mahomed, Roper, Lynnwood, Brooklyn, Anderson, 11th Street, Atterbury, Jacqueline, St Bernard, Borzoi Street.","Status":"Approved","Route_ID":"GRS2","STOP_TYPE":"To Location","STOP_TYPE_LOCATION":"City","Departure_Desc":"T"}},{"type":"Feature","id":32,"geometry":{"type":"Point","coordinates":[28.289531080046494,-25.751576099680445]},"properties":{"OBJECTID":32,"Route_Label":"LYNNWOOD MANOR","Route_description":"Madiba (Vermeulen), Du Toit, Francis Baard (Schoeman), Park, Troye, Robert Sobukwe (Esselen), Bourke, Spuy, Walton Jameson, Jorissen, Lynnwood, Kings Highway, Mimosa, Rodericks, Kings Highway, Meiring Naude, Lynburn, Homer, Larch, Wildevy.","Status":"Approved","Route_ID":"LWM","STOP_TYPE":"To Location","STOP_TYPE_LOCATION":"City","Departure_Desc":"T"}},{"type":"Feature","id":33,"geometry":{"type":"Point","coordinates":[28.321260441447532,-25.749781558793547]},"properties":{"OBJECTID":33,"Route_Label":"LYNNWOOD RIDGE","Route_description":"Madiba (Vermeulen), Du Toit, Francis Baard (Schoeman), Park, Festival, Arcadia, Hilda, Park, Jan Shoba (Duncan), Lynnwood, Camelia, Lancia, Jacobson, Camelia, Gloudina, Theuns, Rossouw, Gordon Verster, Shirley East, Kandelaar, Lexton, Frangipani.","Status":"Approved","Route_ID":"LWR","STOP_TYPE":"To Location","STOP_TYPE_LOCATION":"City","Departure_Desc":"T"}},{"type":"Feature","id":34,"geometry":{"type":"Point","coordinates":[28.216071652459753,-25.696670915872811]},"properties":{"OBJECTID":34,"Route_Label":"WONDERBOOM SOUTH 20","Route_description":"Bosman, Madiba (Vermeulen), Steve Biko (Beatrix, Voortrekkers), De Beer and 20th Avenue.","Status":"Approved","Route_ID":"WBS20","STOP_TYPE":"To Location","STOP_TYPE_LOCATION":"City","Departure_Desc":"T"}},{"type":"Feature","id":35,"geometry":{"type":"Point","coordinates":[28.308490242901033,-25.740357598511238]},"properties":{"OBJECTID":35,"Route_Label":"MEYERSPARK","Route_description":"Bosman, Madiba (Vermeulen), du Toit, Helen Joseph (Church), Stanza Bopape (Church), Cussonia, Watermeyer, Van Wyk, Pienaar.","Status":"Approved","Route_ID":"MRP","STOP_TYPE":"To Location","STOP_TYPE_LOCATION":"City","Departure_Desc":"T"}},{"type":"Feature","id":36,"geometry":{"type":"Point","coordinates":[28.25558779075654,-25.827838920668807]},"properties":{"OBJECTID":36,"Route_Label":"MONUMENTPARK 2","Route_description":"Thabo Sehume,, Nelson Mandela, Elephant, Tiger, Skilpad, Cliff, Koedoesnek, Solomon Mahlangu (Hans Strijdom), Boeing.","Status":"Approved","Route_ID":"MPK2","STOP_TYPE":"To Location","STOP_TYPE_LOCATION":"City","Departure_Desc":"T"}},{"type":"Feature","id":37,"geometry":{"type":"Point","coordinates":[28.24532299709972,-25.808063651138433]},"properties":{"OBJECTID":37,"Route_Label":"MONUMENTPARK 1","Route_description":"Thabo Sehume, Nelson Mandela, Makou, Coetzer, Kolgans, Windswawel, Kransduif, Piet-my-vrou, Diedrikkie, Kelkiewyn, Kuikendief, Kalkoen, Veldpou, Visarend, Makou, Nelson Mandela, Elephant, Lion, Bushbuck, Skilpad, Impala, Njala, Elephant, Cygnus, Aquila.","Status":"Approved","Route_ID":"MPK1","STOP_TYPE":"To Location","STOP_TYPE_LOCATION":"City","Departure_Desc":"T"}},{"type":"Feature","id":39,"geometry":{"type":"Point","coordinates":[28.255538816103041,-25.711312410874129]},"properties":{"OBJECTID":39,"Route_Label":"MOREGLOED 1","Route_description":"Bosman, Madiba (Vermeulen), Steve Biko (Beatrix, Voortrekkers), Ben Swart, Erfurt.","Status":"Approved","Route_ID":"MGD1","STOP_TYPE":"To Location","STOP_TYPE_LOCATION":"City","Departure_Desc":"T"}},{"type":"Feature","id":40,"geometry":{"type":"Point","coordinates":[28.295396145993234,-25.814955855914715]},"properties":{"OBJECTID":40,"Route_Label":"MORELETAPARK","Route_description":"Thabo Sehume, left along Jeff Masemola (Jacob Maré), Rissik, Justice Mahomed (Walker, Charles), Atterbury, Lois, Garsfontein, Hans Strijdom, Delfi, Rubenstein.","Status":"Approved","Route_ID":"MLP","STOP_TYPE":"To Location","STOP_TYPE_LOCATION":"City","Departure_Desc":"T"}},{"type":"Feature","id":41,"geometry":{"type":"Point","coordinates":[28.165796203955999,-25.70132511240525]},"properties":{"OBJECTID":41,"Route_Label":"MOUNTAIN VIEW 1","Route_description":"Pretorius, Kgosi Mampuru (Potgieter), WF Nkomo (Church), Es’kia Mphahlele (DF Malan), Moot, Redelinghuys, Keyter, Henry Nourse, De Villiers, Frieda, Dorp, Seattle, Dunedin, Enterprise, Dorp, Karel Trichardt, Felix, Irvine.","Status":"Approved","Route_ID":"MNV1","STOP_TYPE":"To Location","STOP_TYPE_LOCATION":"City","Departure_Desc":"T"}},{"type":"Feature","id":42,"geometry":{"type":"Point","coordinates":[28.156829478084102,-25.696180575616637]},"properties":{"OBJECTID":42,"Route_Label":"MOUNTAIN VIEW 4","Route_description":"Bosman, Boom, Paul Kruge, Franzina, Smook, Booysens, Bruins, Burlington, Green, Lambert Lee, Denyssen, Barnato, Daphne, Daniel, Denyssen, Borwa, Belmont, Muzilakazi, Bulawayo, Jethro Mathunyane, Dovhula, Bulawayo, Denyssen, Sannaspos.","Status":"Approved","Route_ID":"MNV4","STOP_TYPE":"To Location","STOP_TYPE_LOCATION":"City","Departure_Desc":"T"}},{"type":"Feature","id":43,"geometry":{"type":"Point","coordinates":[28.214263869743093,-25.771093182399149]},"properties":{"OBJECTID":43,"Route_Label":"MUCKLENEUK 7","Route_description":"Madiba (Vermeulen), Thabo Sehume (Andries), Jeff Masemola (Jacob Maré), Rissik, Justice Mahomed (Walker), Florence Ribeiro (Queen Wilhelmina), Totius just before George Storrar. ","Status":"Approved","Route_ID":"MNK7","STOP_TYPE":"To Location","STOP_TYPE_LOCATION":"City","Departure_Desc":"T"}},{"type":"Feature","id":44,"geometry":{"type":"Point","coordinates":[28.327624908588486,-25.744341510306153]},"properties":{"OBJECTID":44,"Route_Label":"MURRYFIELD","Route_description":"Bosman, Madiba (Vermeulen), du Toit, Helen Joseph (Church), Stanza Bopape (Church), Cussonia, Samson, Brummeria, Orpen, Mispel, Ysterhout, Boekenhout, Tamboti, Watermeyer, Naboom, Hardekool, Grace, Clyde, Natalie, Joan, Albertus.","Status":"Approved","Route_ID":"MRF","STOP_TYPE":"To Location","STOP_TYPE_LOCATION":"City","Departure_Desc":"T"}},{"type":"Feature","id":45,"geometry":{"type":"Point","coordinates":[28.102301219385105,-25.651239715494967]},"properties":{"OBJECTID":45,"Route_Label":"THE ORCHARDS 2","Route_description":"Doreen, Eerste, Boshoff, Adkins, Kruger, Boshoff, Eerste, Dieffenbachia, Camelia, Heinrich, Brits Road, Mabopane Highway, Es’kia Mphahlele (DF Malan) and WF Nkomo.","Status":"Approved","Route_ID":"ORC2","STOP_TYPE":"To Location","STOP_TYPE_LOCATION":"City","Departure_Desc":"T"}},{"type":"Feature","id":46,"geometry":{"type":"Point","coordinates":[28.125693094387298,-25.648089784785665]},"properties":{"OBJECTID":46,"Route_Label":"THE ORCHARDS 1","Route_description":"Daan de Wet Nel, Theron, Nelson, Luttig, Theron, André, du Plessis, Stevens, Marimba, Theron, Daan de Wet Nel, Jensen, JD Roos, Seymore, Kirkness, Wolmarans, Bosman, Dorfling, Jensen, Hulton, Orange, Garden, Fairwood, Hulton, Ribbon, Wiechers, Ribbon, Deeks, Hulton, Doreen, Brits, Mabopane, Es’kia Mphahlele (DF Malan), WF Nkomo.","Status":"Approved","Route_ID":"ORC1","STOP_TYPE":"To Location","STOP_TYPE_LOCATION":"City","Departure_Desc":"T"}},{"type":"Feature","id":47,"geometry":{"type":"Point","coordinates":[28.08379966746007,-25.637824792407187]},"properties":{"OBJECTID":47,"Route_Label":"THE ORCHARDS 3","Route_description":"Pretorius, Kgosi Mampuru (Potgieter), WF Nkomo (Church), Es’kia Mphahlele (DF Malan), Mabopane Highway, Brits Road, Longmore and Deetlefs up to cnr Ryegrass.","Status":"Approved","Route_ID":"ORC3","STOP_TYPE":"To Location","STOP_TYPE_LOCATION":"City","Departure_Desc":"T"}},{"type":"Feature","id":49,"geometry":{"type":"Point","coordinates":[28.156404456540134,-25.678537234249102]},"properties":{"OBJECTID":49,"Route_Label":"PRETORIA NORTH 2","Route_description":"Bosman, Boom, Paul Kruger, Rachel de Beer, Brits Road, Francois, Punctata, Makkie, Lucas Meyer, Pruinosa, Ciliaris, Blouaalwyn, Verecunda, Petronella, Angelica, Castanea, Lineata, Vaandrager, Barbara, Francois.","Status":"Approved","Route_ID":"PNH2","STOP_TYPE":"To Location","STOP_TYPE_LOCATION":"City","Departure_Desc":"T"}},{"type":"Feature","id":50,"geometry":{"type":"Point","coordinates":[28.159266338107393,-25.665060135578354]},"properties":{"OBJECTID":50,"Route_Label":"PRETORIA NORTH 3","Route_description":"Bosman, Boom, Paul Kruger, Rachel de Beer, Eeufees, Pres Steyn, Horn and Wonderboom Street.","Status":"Approved","Route_ID":"PNH3","STOP_TYPE":"To Location","STOP_TYPE_LOCATION":"City","Departure_Desc":"T"}},{"type":"Feature","id":51,"geometry":{"type":"Point","coordinates":[28.156130797172601,-25.659146269511456]},"properties":{"OBJECTID":51,"Route_Label":"PRETORIA NORTH 4","Route_description":"Bosman, Boom, Paul Kruger, Rachel de Beer, Danie Theron, Wonderboom, Bakenkloof and Pagel.","Status":"Approved","Route_ID":"PNH4","STOP_TYPE":"To Location","STOP_TYPE_LOCATION":"City","Departure_Desc":"T"}},{"type":"Feature","id":52,"geometry":{"type":"Point","coordinates":[28.242304688760044,-25.723256474287297]},"properties":{"OBJECTID":52,"Route_Label":"QUEENSWOOD","Route_description":"Bosman, Madiba (Vermeulen), Steve Biko (Beatrix, Voortrekkers), Jacob, Pierneef, Stead and Dormer.","Status":"Approved","Route_ID":"QWD","STOP_TYPE":"To Location","STOP_TYPE_LOCATION":"City","Departure_Desc":"T"}},{"type":"Feature","id":53,"geometry":{"type":"Point","coordinates":[28.272869939721907,-25.700901681234519]},"properties":{"OBJECTID":53,"Route_Label":"RIETFONTEIN 21","Route_description":"Bosman, Madiba (Vermeulen), Steve Biko (Beatrix, Voortrekkers), Fredrika, 13th Avenue, Swemmer, 14th Avenue, Meyer, Codonia, Walter, Darling, Breyer, Ooievaar, Varing, Bergarend and Koekoek.","Status":"Approved","Route_ID":"RTN21","STOP_TYPE":"To Location","STOP_TYPE_LOCATION":"City","Departure_Desc":"T"}},{"type":"Feature","id":54,"geometry":{"type":"Point","coordinates":[28.275169685873518,-25.756467951047352]},"properties":{"OBJECTID":54,"Route_Label":"INOVATION HUB (MURRYFIELD 2)","Route_description":"Madiba (Vermeulen), Helen Joseph (du Toit), Stanza Bopape (Church), Pretoria, Cussonia, Meiring Naudé, Hotel, Max Theiler, Aaron Klug, Allan Cormack, Mark Shuttleworth.","Status":"Approved","Route_ID":"SCA","STOP_TYPE":"To Location","STOP_TYPE_LOCATION":"City","Departure_Desc":"T"}},{"type":"Feature","id":55,"geometry":{"type":"Point","coordinates":[28.316473346247445,-25.732850185382262]},"properties":{"OBJECTID":55,"Route_Label":"SILVERTON 1","Route_description":"Bosman, Madiba (Vermeulen), Du Toit, Helen Joseph (Church), Stanza Bopape (Church), National Road, Pretoria, Waltloo, Flamink, Service Road.","Status":"Approved","Route_ID":"SVN1","STOP_TYPE":"To Location","STOP_TYPE_LOCATION":"City","Departure_Desc":"T"}},{"type":"Feature","id":56,"geometry":{"type":"Point","coordinates":[28.33232995160575,-25.728733549406417]},"properties":{"OBJECTID":56,"Route_Label":"SILVERTON 2","Route_description":"Bosman, Madiba (Vermeulen), Du Toit, Helen Joseph (Church), Stanza Bopape (Church), National Road, Pretoria, Waltloo, Simon Vermoten.","Status":"Approved","Route_ID":"SVN2","STOP_TYPE":"To Location","STOP_TYPE_LOCATION":"City","Departure_Desc":"T"}},{"type":"Feature","id":57,"geometry":{"type":"Point","coordinates":[28.325625941966269,-25.739879386651868]},"properties":{"OBJECTID":57,"Route_Label":"SILVERTON 3","Route_description":"Bosman, Madiba (Vermeulen), Du Toit, Helen Joseph (Church), Stanza Bopape (Church), National Road, Pretoria, Watermeyer, Keuning, Anne Marie, Simmetrie, Kegel, Ellips Street ","Status":"Approved","Route_ID":"SVN3","STOP_TYPE":"To Location","STOP_TYPE_LOCATION":"City","Departure_Desc":"T"}},{"type":"Feature","id":58,"geometry":{"type":"Point","coordinates":[28.143395392156503,-25.657587808214068]},"properties":{"OBJECTID":58,"Route_Label":"THERESAPARK","Route_description":"Pretorius, Kgosi Mampuru (Potgieter), WF Nkomo (Church), Es’kia Mphahlele (DF Malan), Mabopane Highway, Brits Road, Waterbok, Leopard, Barbara, Bokmakierie, Waterbok, Grysbok, Porcupine, Pangolin, Dolphin, Daphne, Willem Cruywagen, Joan, Ivor, Daan de Wet Nel, Waterbok, Bokser, Great Dane, Greyhound, Bontbok, Waterbok ","Status":"Approved","Route_ID":"TRP","STOP_TYPE":"To Location","STOP_TYPE_LOCATION":"City","Departure_Desc":"T"}},{"type":"Feature","id":59,"geometry":{"type":"Point","coordinates":[28.132601115831982,-25.723899597171602]},"properties":{"OBJECTID":59,"Route_Label":"TUINE 1","Route_description":"Pretorius, Kgosi Mampuru (Potgieter), WF Nkomo (Church), Es’kia Mphahlele (DF Malan), Van der Hoff, Schurmanns, Lotty, Weir, Tuin, Louise and Diamond Street.","Status":"Approved","Route_ID":"TUI1","STOP_TYPE":"To Location","STOP_TYPE_LOCATION":"City","Departure_Desc":"T"}},{"type":"Feature","id":60,"geometry":{"type":"Point","coordinates":[28.157517226699436,-25.799489838737681]},"properties":{"OBJECTID":60,"Route_Label":"VALHALLA","Route_description":"Pretorius, Sophie de Bruyn (Schubart), Kgosi Mampuru (Potgieter), Jan Smuts, Paul Kruger, Fjord.","Status":"Approved","Route_ID":"VAL","STOP_TYPE":"To Location","STOP_TYPE_LOCATION":"City","Departure_Desc":"T"}},{"type":"Feature","id":61,"geometry":{"type":"Point","coordinates":[28.24060592609073,-25.71850510214832]},"properties":{"OBJECTID":61,"Route_Label":"VILLIERIA 1","Route_description":"Bosman, Madiba (Vermeulen), Steve Biko (Beatrix, Voortrekkers), Fredrika, Frates, Niko Smit, 33rd.","Status":"Approved","Route_ID":"VIL1","STOP_TYPE":"To Location","STOP_TYPE_LOCATION":"City","Departure_Desc":"T"}},{"type":"Feature","id":62,"geometry":{"type":"Point","coordinates":[28.246863268389298,-25.718211993193055]},"properties":{"OBJECTID":62,"Route_Label":"VILLIERIA 2","Route_description":"Bosman, Madiba (Vermeulen), Steve Biko (Beatrix, Voortrekkers), Fredrika, Frates, Nico Smith (Michael Brink), Bloubokkie, Eland.","Status":"Approved","Route_ID":"VIL2","STOP_TYPE":"To Location","STOP_TYPE_LOCATION":"City","Departure_Desc":"T"}},{"type":"Feature","id":63,"geometry":{"type":"Point","coordinates":[28.253855747233967,-25.715090315758495]},"properties":{"OBJECTID":63,"Route_Label":"VILLIERIA 3","Route_description":"Bosman, Madiba (Vermeulen), Steve Biko (Beatrix, Voortrekkers), Fredrika, Frates, Niko Smit, Grant.","Status":"Approved","Route_ID":"VIL3","STOP_TYPE":"To Location","STOP_TYPE_LOCATION":"City","Departure_Desc":"T"}},{"type":"Feature","id":64,"geometry":{"type":"Point","coordinates":[28.132638262634526,-25.788889890473502]},"properties":{"OBJECTID":64,"Route_Label":"THABA TSHWANE (VOORTREKKERHOOGTE)","Route_description":"Pretorius, Sophie de Bruyn (Schubart), Kgosi Mampuru (Potgieter), Jan Smuts, Voortrekkerhoogte bypass, Voortrekker, De Wet, Voortrekker, Helwan, Bardia, Hendrik Potgieter, Van Riebeeck, Henry Williams, Jacobus Jooste, Stephanus Schoeman, Frederik Ernst, Andries Pretorius, Hendrik Alberts and Tobias Smuts Road.","Status":"Approved","Route_ID":"VRT","STOP_TYPE":"To Location","STOP_TYPE_LOCATION":"City","Departure_Desc":"T"}},{"type":"Feature","id":65,"geometry":{"type":"Point","coordinates":[28.273738470956648,-25.804356338085132]},"properties":{"OBJECTID":65,"Route_Label":"WATERKLOOF GLEN","Route_description":"Thabo Sehume, Jeff Masemola (Jacob Maré), Rissik, Justice Mahomed (Walker), Florence Ribeiro (Queen Wilhelmina), Main, Crown, Albert, Dely, Garstfontein, Selati, Club, Matroosberg, Lois, Dwyka and Jonathan to just east of Clarence Street.","Status":"Approved","Route_ID":"WKG","STOP_TYPE":"To Location","STOP_TYPE_LOCATION":"City","Departure_Desc":"T"}},{"type":"Feature","id":66,"geometry":{"type":"Point","coordinates":[28.263826508524168,-25.82529946159146]},"properties":{"OBJECTID":66,"Route_Label":"WATERKLOOF RIDGE","Route_description":"Madiba (Vermeulen), Du Toit, Francis Baard (Schoeman), Park, Leyds, Rissik, Justice Mahomed (Walker), Florence Ribeiro (Queen Wilhelmina), Main, Kloof, Rigel, Eridanus, Pleiades, Jupiter, Polaris, Neptune, Rigel, Schoongezicht, Cliff, Koedoesnek, Solomon Mahlangu (Hans Strijdom), Boeing, Alandale, Barnard and Klipbank.","Status":"Approved","Route_ID":"WKR","STOP_TYPE":"To Location","STOP_TYPE_LOCATION":"City","Departure_Desc":"T"}},{"type":"Feature","id":67,"geometry":{"type":"Point","coordinates":[28.272876418690768,-25.700902458200936]},"properties":{"OBJECTID":67,"Route_Label":"WAVERLEY 6","Route_description":"Bosman, Madiba (Vermeulen), Steve Biko (Beatrix, Voortrekkers), Hertzog, Codonia, Starkey, Trumper, Lawson, Darling and Koekoek as far as Bergarand Street.","Status":"Approved","Route_ID":"WVL6","STOP_TYPE":"To Location","STOP_TYPE_LOCATION":"City","Departure_Desc":"T"}},{"type":"Feature","id":68,"geometry":{"type":"Point","coordinates":[28.121639563420196,-25.761319887375709]},"properties":{"OBJECTID":68,"Route_Label":"WEST PARK 1","Route_description":"Pretorius, Sophie De Bruyn, Nana Sita, Charlotte Maxeke, Oliewen, Cobalt, Mica, Oliewen, Middle Crescent, Iscor, Inner Crescent, Van Dalsen, Rod and Kraai.","Status":"Approved","Route_ID":"WPK1","STOP_TYPE":"To Location","STOP_TYPE_LOCATION":"City","Departure_Desc":"T"}},{"type":"Feature","id":69,"geometry":{"type":"Point","coordinates":[28.127706037667387,-25.755985565656921]},"properties":{"OBJECTID":69,"Route_Label":"WEST PARK 2","Route_description":"Pretorius, Kgosi Mampuru (Potgieter), WF Nkomo (Church) and Iscor, north of Bosbok Road.","Status":"Approved","Route_ID":"WPK2","STOP_TYPE":"To Location","STOP_TYPE_LOCATION":"City","Departure_Desc":"T"}},{"type":"Feature","id":70,"geometry":{"type":"Point","coordinates":[28.089726582423712,-25.746577425264029]},"properties":{"OBJECTID":70,"Route_Label":"WEST PARK 7","Route_description":"Pretorius, Kgosi Mampuru (Potgieter), WF Nkomo (Church), Acridian, Anthesis and Cyme Crescent, north of Anthesis.","Status":"Approved","Route_ID":"WPK7","STOP_TYPE":"To Location","STOP_TYPE_LOCATION":"City","Departure_Desc":"T"}},{"type":"Feature","id":71,"geometry":{"type":"Point","coordinates":[28.071290291779437,-25.754466911274491]},"properties":{"OBJECTID":71,"Route_Label":"WEST PARK 8","Route_description":"Pretorius, Kgosi Mampuru (Potgieter), WF Nkomo (Church) and Citron to just before Ruth.","Status":"Approved","Route_ID":"WPK8","STOP_TYPE":"To Location","STOP_TYPE_LOCATION":"City","Departure_Desc":"T"}},{"type":"Feature","id":73,"geometry":{"type":"Point","coordinates":[28.311018889358053,-25.758764404645799]},"properties":{"OBJECTID":73,"Route_Label":"DIE WILGERS","Route_description":"Madiba (Vermeulen), Du Toit, Francis Baard, Park, Festival, Arcadia, Hilda, Park, Jan Shoba, Lynnwood, Camelia, Freesia, Hibiscus, Saligna, Spitskop, Lezard, Susan Soendal, Piet Louw and Rossouw Street, east of Gordon Verster Road ","Status":"Approved","Route_ID":"DWS","STOP_TYPE":"To Location","STOP_TYPE_LOCATION":"City","Departure_Desc":"T"}},{"type":"Feature","id":74,"geometry":{"type":"Point","coordinates":[28.230057977799955,-25.761606420844764]},"properties":{"OBJECTID":74,"Route_Label":"SUNNYSIDE 3","Route_description":"Madiba (Vermeulen), Du Toit, Francis Baard (Schoeman), Park, Troye, Walker, Justice Mahomed, Roper","Status":"Approved","Route_ID":"SUN3","STOP_TYPE":"To Location","STOP_TYPE_LOCATION":"City","Departure_Desc":"T"}},{"type":"Feature","id":77,"geometry":{"type":"Point","coordinates":[28.295928085423249,-25.799694742390226]},"properties":{"OBJECTID":77,"Route_Label":"GARSFONTEIN 3","Route_description":"Madiba (Vermeulen), Du Toit, Francis Baard (Schoeman), Park, Troye, Robert Sobukwe (Esselen), Bourke, Spuy, Walton Jameson, Jorissen, Lynnwood, Atterbury, The Village, The Hillside, Klarinet, Atterbury, Lois, Garsfontein, Corobay, Aramist, Serene, Landi, Keeshond, Issie Smuts, Serene, Velddrif and Windsor Street.","Status":"Approved","Route_ID":"GRS3","STOP_TYPE":"To Location","STOP_TYPE_LOCATION":"City","Departure_Desc":"T"}},{"type":"Feature","id":78,"geometry":{"type":"Point","coordinates":[28.127005018700824,-25.717502654993602]},"properties":{"OBJECTID":78,"Route_Label":"TUINE 2","Route_description":"Pretorius, Kgosi Mampuru (Potgieter), WF Nkomo (Church), Es’kia Mphahlele (DF Malan), Van der Hoff, Schurmanns, Alter, Ernest, Tuin, Commercial, Luderitz.","Status":"Approved","Route_ID":"TUI2","STOP_TYPE":"To Location","STOP_TYPE_LOCATION":"City","Departure_Desc":"T"}},{"type":"Feature","id":79,"geometry":{"type":"Point","coordinates":[28.095591717624881,-25.738165670985484]},"properties":{"OBJECTID":79,"Route_Label":"DANVILLE 6","Route_description":"Pretorius, Kgosi Mampuru, WF Nkomo, Transoranje, Ashley,  Albertyn, Schmidt, Strachan, Sekelgras, Van den Berg.","Status":"Approved","Route_ID":"DAN6","STOP_TYPE":"To Location","STOP_TYPE_LOCATION":"City","Departure_Desc":"T"}},{"type":"Feature","id":80,"geometry":{"type":"Point","coordinates":[28.200911904651011,-25.877816112234481]},"properties":{"OBJECTID":80,"Route_Label":"ROUTE 4","Route_description":"Waterberg, Modisane, Serenade, Samrand, Ikati, Cycad, Legong, Umhlume, Bohlale, Motolo, Lindani, Marudi, Motolo, R55, N14, John Vorster, Nellmapius, John Vorster, Luton, Logan, Tegel, Oak, Witch-Hazel, Olievenhoutbosch, John Vorster, N14, R55.","Status":"Approved","Route_ID":"ROUTE4","STOP_TYPE":"To Location","STOP_TYPE_LOCATION":"Olievenhoutbos","Departure_Desc":"T"}},{"type":"Feature","id":81,"geometry":{"type":"Point","coordinates":[28.161810606489933,-25.842239826345185]},"properties":{"OBJECTID":81,"Route_Label":"ROUTE 7","Route_description":"Waterberg, Modisane, Serenade, Samrand, Ikati, Cycad, Legong, Umhlume, Bohlale, Motolo, Lindani, Marudi, Motolo, R55, Ruimte, Aletta, Louisa, Rooihuiskraal, right along Ruimte, right along Saxby, Lyttleton, Harvard, Blackwood, Galway, Hendrik Verwoerd, Willem Botha circle, Ruimte, Chris Hougaard, Ruimte, Rooihuiskraal, Louisa, Aletta, Ruimte, R55, Waterberg.","Status":"Approved","Route_ID":"ROUTE7","STOP_TYPE":"To Location","STOP_TYPE_LOCATION":"Olievenhoutbos","Departure_Desc":"T"}},{"type":"Feature","id":82,"geometry":{"type":"Point","coordinates":[28.202043196333204,-25.696391625766971]},"properties":{"OBJECTID":82,"Route_Label":"WONDERBOOM SOUTH 19","Route_description":"Bosman, Madiba (Vermeulen), Steve Biko (Beatrix, Voortrekkers), De Beer, 10th Avenue.","Status":"Approved","Route_ID":"WBS19","STOP_TYPE":"To Location","STOP_TYPE_LOCATION":"City","Departure_Desc":"T"}},{"type":"Feature","id":83,"geometry":{"type":"Point","coordinates":[28.190658338407637,-25.748077244505399]},"properties":{"OBJECTID":83,"Route_Label":"MUCKLENEUK 7","Route_description":"DEPARTURE POINT IN TOWN","Status":"Approved","Route_ID":"MNK7","STOP_TYPE":"From Location","STOP_TYPE_LOCATION":"City","Departure_Desc":"DP"}},{"type":"Feature","id":84,"geometry":{"type":"Point","coordinates":[28.190695206449071,-25.748516421569214]},"properties":{"OBJECTID":84,"Route_Label":"MORELETAPARK","Route_description":"DEPARTURE POINT IN TOWN","Status":"Approved","Route_ID":"MLP","STOP_TYPE":"From Location","STOP_TYPE_LOCATION":"City","Departure_Desc":"DP"}},{"type":"Feature","id":85,"geometry":{"type":"Point","coordinates":[28.190643594565859,-25.748334401685817]},"properties":{"OBJECTID":85,"Route_Label":"MONUMENTPARK 2, WATERKLOOF GLEN","Route_description":"DEPARTURE POINT IN TOWN","Status":"Approved","Route_ID":"WKG,MPK2","STOP_TYPE":"From Location","STOP_TYPE_LOCATION":"City","Departure_Desc":"DP"}},{"type":"Feature","id":86,"geometry":{"type":"Point","coordinates":[28.190704825133039,-25.748630997779479]},"properties":{"OBJECTID":86,"Route_Label":"BROOKLYN 10","Route_description":"DEPARTURE POINT IN TOWN","Status":"Approved","Route_ID":"BKN10","STOP_TYPE":"From Location","STOP_TYPE_LOCATION":"City","Departure_Desc":"DP"}},{"type":"Feature","id":87,"geometry":{"type":"Point","coordinates":[28.189554551842363,-25.747830869851946]},"properties":{"OBJECTID":87,"Route_Label":"MOUNTAIN VIEW 1","Route_description":"DEPARTURE POINT IN TOWN","Status":"Approved","Route_ID":"MNV1","STOP_TYPE":"From Location","STOP_TYPE_LOCATION":"City","Departure_Desc":"DP"}},{"type":"Feature","id":88,"geometry":{"type":"Point","coordinates":[28.189718242767924,-25.747819526149719]},"properties":{"OBJECTID":88,"Route_Label":"THABA TSHWANE (VOORTREKKERHOOGTE)","Route_description":"DEPARTURE POINT IN TOWN","Status":"Approved","Route_ID":"VRT","STOP_TYPE":"From Location","STOP_TYPE_LOCATION":"City","Departure_Desc":"DP"}},{"type":"Feature","id":89,"geometry":{"type":"Point","coordinates":[28.189628734070531,-25.747825719053466]},"properties":{"OBJECTID":89,"Route_Label":"VALHALLA","Route_description":"DEPARTURE POINT IN TOWN","Status":"Approved","Route_ID":"VAL","STOP_TYPE":"From Location","STOP_TYPE_LOCATION":"City","Departure_Desc":"DP"}},{"type":"Feature","id":90,"geometry":{"type":"Point","coordinates":[28.189396065819775,-25.747841852419004]},"properties":{"OBJECTID":90,"Route_Label":"THE ORCHARDS 1, THE ORCHARDS 2, THE ORCHARDS 3","Route_description":"DEPARTURE POINT IN TOWN","Status":"Approved","Route_ID":"ORC1,ORC2,ORC3","STOP_TYPE":"From Location","STOP_TYPE_LOCATION":"City","Departure_Desc":"DP"}},{"type":"Feature","id":92,"geometry":{"type":"Point","coordinates":[28.188985937969701,-25.747847150755351]},"properties":{"OBJECTID":92,"Route_Label":"ERASMIA 2, ERASMIA 3","Route_description":"DEPARTURE POINT IN TOWN","Status":"Approved","Route_ID":"ERS2,ERS3","STOP_TYPE":"From Location","STOP_TYPE_LOCATION":"City","Departure_Desc":"DP"}},{"type":"Feature","id":93,"geometry":{"type":"Point","coordinates":[28.18861965399805,-25.747895501619315]},"properties":{"OBJECTID":93,"Route_Label":"WEST PARK 6, WEST PARK 7, WEST PARK 8","Route_description":"DEPARTURE POINT IN TOWN","Status":"Approved","Route_ID":"WPK6,WPK7,WPK8","STOP_TYPE":"From Location","STOP_TYPE_LOCATION":"City","Departure_Desc":"DP"}},{"type":"Feature","id":94,"geometry":{"type":"Point","coordinates":[28.187851276359034,-25.747949320544286]},"properties":{"OBJECTID":94,"Route_Label":"DANVILLE 1, DANVILLE 3, DANVILLE 6","Route_description":"DEPARTURE POINT IN TOWN","Status":"Approved","Route_ID":"DAN1,DAN3,DAN6","STOP_TYPE":"From Location","STOP_TYPE_LOCATION":"City","Departure_Desc":"DP"}},{"type":"Feature","id":95,"geometry":{"type":"Point","coordinates":[28.187425775492549,-25.747979733827616]},"properties":{"OBJECTID":95,"Route_Label":"DANVILLE 2, DANVILLE 4, DANVILLE 5","Route_description":"DEPARTURE POINT IN TOWN","Status":"Approved","Route_ID":"DAN2,DAN4,DAN5","STOP_TYPE":"From Location","STOP_TYPE_LOCATION":"City","Departure_Desc":"DP"}},{"type":"Feature","id":97,"geometry":{"type":"Point","coordinates":[28.186884442046431,-25.748016643214513]},"properties":{"OBJECTID":97,"Route_Label":"TUINE 2","Route_description":"DEPARTURE POINT IN TOWN","Status":"Approved","Route_ID":"TUI2","STOP_TYPE":"From Location","STOP_TYPE_LOCATION":"City","Departure_Desc":"DP"}},{"type":"Feature","id":98,"geometry":{"type":"Point","coordinates":[28.186839646005055,-25.748019696595691]},"properties":{"OBJECTID":98,"Route_Label":"TUINE 1","Route_description":"DEPARTURE POINT IN TOWN","Status":"Approved","Route_ID":"TUI1","STOP_TYPE":"From Location","STOP_TYPE_LOCATION":"City","Departure_Desc":"DP"}},{"type":"Feature","id":101,"geometry":{"type":"Point","coordinates":[28.185683168657054,-25.747369035759469]},"properties":{"OBJECTID":101,"Route_Label":"WONDERBOOM SOUTH 19, WONDERBOOM SOUTH 20, RIETFONT","Route_description":"DEPARTURE POINT IN TOWN","Status":"Approved","Route_ID":"WBS19,WBS20,RTN21","STOP_TYPE":"From Location","STOP_TYPE_LOCATION":"City","Departure_Desc":"DP"}},{"type":"Feature","id":102,"geometry":{"type":"Point","coordinates":[28.185666827451147,-25.747174221248045]},"properties":{"OBJECTID":102,"Route_Label":"VILLIERIA 1, VILLIERIA 2, VILLIERIA 3, WAVERLEY 6","Route_description":"DEPARTURE POINT IN TOWN","Status":"Approved","Route_ID":"VIL1,VIL2,VIL3,WVL6","STOP_TYPE":"From Location","STOP_TYPE_LOCATION":"City","Departure_Desc":"DP"}},{"type":"Feature","id":104,"geometry":{"type":"Point","coordinates":[28.185686235302548,-25.747405583803104]},"properties":{"OBJECTID":104,"Route_Label":"COLBYN 4, COLBYN 5, COLBYN 6, MEYERSPARK, SILVERTON 1","Route_description":"DEPARTURE POINT IN TOWN","Status":"Approved","Route_ID":"MRP,SVN3,COL4,COL5,COL6","STOP_TYPE":"From Location","STOP_TYPE_LOCATION":"City","Departure_Desc":"DP"}},{"type":"Feature","id":105,"geometry":{"type":"Point","coordinates":[28.190873084183238,-25.744727223044226]},"properties":{"OBJECTID":105,"Route_Label":"MEYERSPARK, SILVERTON 1, SILVERTON 2","Route_description":"DEPARTURE POINT IN TOWN","Status":"Approved","Route_ID":"SVN1,SVN2,MRF","STOP_TYPE":"From Location","STOP_TYPE_LOCATION":"City","Departure_Desc":"DP"}},{"type":"Feature","id":107,"geometry":{"type":"Point","coordinates":[28.185466319197953,-25.744782397774269]},"properties":{"OBJECTID":107,"Route_Label":"WONDERBOOM 1, WONDERBOOM 2","Route_description":"DEPARTURE POINT IN TOWN","Status":"Approved","Route_ID":"WBM1,WBM2","STOP_TYPE":"From Location","STOP_TYPE_LOCATION":"City","Departure_Desc":"DP"}},{"type":"Feature","id":108,"geometry":{"type":"Point","coordinates":[28.185433052715133,-25.744385938960836]},"properties":{"OBJECTID":108,"Route_Label":"WONDERBOOM 3, WONDERBOOM 4","Route_description":"DEPARTURE POINT IN TOWN","Status":"Approved","Route_ID":"WBM3,WBM4","STOP_TYPE":"From Location","STOP_TYPE_LOCATION":"City","Departure_Desc":"DP"}},{"type":"Feature","id":109,"geometry":{"type":"Point","coordinates":[28.185433496974948,-25.744391234288987]},"properties":{"OBJECTID":109,"Route_Label":"PRETORIA NORTH 1, PRETORIA NORTH 2","Route_description":"DEPARTURE POINT IN TOWN","Status":"Approved","Route_ID":"PNH1,PNH2","STOP_TYPE":"From Location","STOP_TYPE_LOCATION":"City","Departure_Desc":"DP"}},{"type":"Feature","id":110,"geometry":{"type":"Point","coordinates":[28.185414761338816,-25.74416795545519]},"properties":{"OBJECTID":110,"Route_Label":"PRETORIA NORTH 3, PRETORIA NORTH 4","Route_description":"DEPARTURE POINT IN TOWN","Status":"Approved","Route_ID":"PNH3,PNH4","STOP_TYPE":"From Location","STOP_TYPE_LOCATION":"City","Departure_Desc":"DP"}},{"type":"Feature","id":111,"geometry":{"type":"Point","coordinates":[28.185405853926241,-25.744061804159088]},"properties":{"OBJECTID":111,"Route_Label":"DOORNPOORT 1, DOORNPOORT 2, DOORNPOORT 3","Route_description":"DEPARTURE POINT IN TOWN","Status":"Approved","Route_ID":"DNP1,DNP2,DNP3","STOP_TYPE":"From Location","STOP_TYPE_LOCATION":"City","Departure_Desc":"DP"}},{"type":"Feature","id":112,"geometry":{"type":"Point","coordinates":[28.186269661448694,-25.745005824004881]},"properties":{"OBJECTID":112,"Route_Label":"EASTLYNNE 1, WATERKLOOF RIDGE","Route_description":"DEPARTURE POINT IN TOWN","Status":"Approved","Route_ID":"ELN1,WKR","STOP_TYPE":"From Location","STOP_TYPE_LOCATION":"City","Departure_Desc":"DP"}},{"type":"Feature","id":114,"geometry":{"type":"Point","coordinates":[28.186772124053544,-25.744968200454228]},"properties":{"OBJECTID":114,"Route_Label":"BROOKLYN 9","Route_description":"DEPARTURE POINT IN TOWN","Status":"Approved","Route_ID":"BKN9","STOP_TYPE":"From Location","STOP_TYPE_LOCATION":"City","Departure_Desc":"DP"}},{"type":"Feature","id":115,"geometry":{"type":"Point","coordinates":[28.187155171744415,-25.745040388723815]},"properties":{"OBJECTID":115,"Route_Label":"MUCKLENEUK 7","Route_description":"DEPARTURE POINT IN TOWN","Status":"Approved","Route_ID":"MNK7","STOP_TYPE":"From Location","STOP_TYPE_LOCATION":"City","Departure_Desc":"DP"}},{"type":"Feature","id":116,"geometry":{"type":"Point","coordinates":[28.18653555591181,-25.745084354416864]},"properties":{"OBJECTID":116,"Route_Label":"GARSFONTEIN 1, GARSFONTEIN 2, GARSFONTEIN 3","Route_description":"DEPARTURE POINT IN TOWN","Status":"Approved","Route_ID":"GRS1,GRS2,GRS3","STOP_TYPE":"From Location","STOP_TYPE_LOCATION":"City","Departure_Desc":"DP"}},{"type":"Feature","id":117,"geometry":{"type":"Point","coordinates":[28.188464754865066,-25.74494889256437]},"properties":{"OBJECTID":117,"Route_Label":"DIE WILGERS","Route_description":"DEPARTURE POINT IN TOWN","Status":"Approved","Route_ID":"DWS","STOP_TYPE":"From Location","STOP_TYPE_LOCATION":"City","Departure_Desc":"DP"}},{"type":"Feature","id":118,"geometry":{"type":"Point","coordinates":[28.18853878691684,-25.744847046829999]},"properties":{"OBJECTID":118,"Route_Label":"LYNNWOOD RIDGE","Route_description":"DEPARTURE POINT IN TOWN","Status":"Approved","Route_ID":"LWR","STOP_TYPE":"From Location","STOP_TYPE_LOCATION":"City","Departure_Desc":"DP"}},{"type":"Feature","id":119,"geometry":{"type":"Point","coordinates":[28.188758488761117,-25.744832032122869]},"properties":{"OBJECTID":119,"Route_Label":"BROOKLYN 5, BROOKLYN 8","Route_description":"DEPARTURE POINT IN TOWN","Status":"Approved","Route_ID":"BKN5,BKN8","STOP_TYPE":"From Location","STOP_TYPE_LOCATION":"City","Departure_Desc":"DP"}},{"type":"Feature","id":120,"geometry":{"type":"Point","coordinates":[28.189006205410951,-25.744912741271381]},"properties":{"OBJECTID":120,"Route_Label":"FAERIE GLEN","Route_description":"DEPARTURE POINT IN TOWN","Status":"Approved","Route_ID":"FRG","STOP_TYPE":"From Location","STOP_TYPE_LOCATION":"City","Departure_Desc":"DP"}},{"type":"Feature","id":121,"geometry":{"type":"Point","coordinates":[28.189055324574781,-25.744909247335666]},"properties":{"OBJECTID":121,"Route_Label":"LYNNWOOD MANOR","Route_description":"DEPARTURE POINT IN TOWN","Status":"Approved","Route_ID":"LWM","STOP_TYPE":"From Location","STOP_TYPE_LOCATION":"City","Departure_Desc":"DP"}},{"type":"Feature","id":122,"geometry":{"type":"Point","coordinates":[28.193245494447282,-25.744583607025611]},"properties":{"OBJECTID":122,"Route_Label":"EASTLYNNE 1, EASTLYNNE 2, BROOKLYN 9","Route_description":"DEPARTURE POINT IN TOWN","Status":"Approved","Route_ID":"ELN1,ELN2,BKN9","STOP_TYPE":"From Location","STOP_TYPE_LOCATION":"City","Departure_Desc":"DP"}},{"type":"Feature","id":123,"geometry":{"type":"Point","coordinates":[28.19326580079662,-25.744616622007786]},"properties":{"OBJECTID":123,"Route_Label":"RIETFONTEIN 21, WAVERLEY 6, WONDERBOOM SOUTH 19, WONDERBOOM SOUTH 20","Route_description":"DEPARTURE POINT IN TOWN","Status":"Approved","Route_ID":"RTN21,WVL6,WBS19,WBS20","STOP_TYPE":"From Location","STOP_TYPE_LOCATION":"City","Departure_Desc":"DP"}},{"type":"Feature","id":125,"geometry":{"type":"Point","coordinates":[28.194227532999012,-25.74455093945846]},"properties":{"OBJECTID":125,"Route_Label":"GARSFONTEIN 1, GARSFONTEIN 2, GARSFONTEIN 3, SUNNYSIDE 3","Route_description":"DEPARTURE POINT IN TOWN","Status":"Approved","Route_ID":"GRS1,GRS2,GRS3,SUN3","STOP_TYPE":"From Location","STOP_TYPE_LOCATION":"City","Departure_Desc":"DP"}},{"type":"Feature","id":126,"geometry":{"type":"Point","coordinates":[28.194553012589289,-25.744528399435652]},"properties":{"OBJECTID":126,"Route_Label":"DIE WILGERS, LYNNWOOD RIDGE","Route_description":"DEPARTURE POINT IN TOWN","Status":"Approved","Route_ID":"DWS,LWR","STOP_TYPE":"From Location","STOP_TYPE_LOCATION":"City","Departure_Desc":"DP"}},{"type":"Feature","id":127,"geometry":{"type":"Point","coordinates":[28.194722554433476,-25.744516659048177]},"properties":{"OBJECTID":127,"Route_Label":"FAERIE GLEN, LYNNWOOD MANOR","Route_description":"DEPARTURE POINT IN TOWN","Status":"Approved","Route_ID":"FRG,LWM","STOP_TYPE":"From Location","STOP_TYPE_LOCATION":"City","Departure_Desc":"DP"}},{"type":"Feature","id":128,"geometry":{"type":"Point","coordinates":[28.194909157633958,-25.744413042270342]},"properties":{"OBJECTID":128,"Route_Label":"BROOKLYN 5, BROOKLYN 8, WATERKLOOF RIDGE","Route_description":"DEPARTURE POINT IN TOWN","Status":"Approved","Route_ID":"BKN5,BKN8,WKR","STOP_TYPE":"From Location","STOP_TYPE_LOCATION":"City","Departure_Desc":"DP"}},{"type":"Feature","id":129,"geometry":{"type":"Point","coordinates":[28.195036128436417,-25.744494835569625]},"properties":{"OBJECTID":129,"Route_Label":"MEYERSPARK, MURRYFIELD","Route_description":"DEPARTURE POINT IN TOWN","Status":"Approved","Route_ID":"MRP,MRF","STOP_TYPE":"From Location","STOP_TYPE_LOCATION":"City","Departure_Desc":"DP"}},{"type":"Feature","id":130,"geometry":{"type":"Point","coordinates":[28.195461040265098,-25.74446577027047]},"properties":{"OBJECTID":130,"Route_Label":"COLBYN 4, COLBYN 5, COLBYN 6, SILVERTON 1, SILVERTON 2, SILVERTON 3","Route_description":"DEPARTURE POINT IN TOWN","Status":"Approved","Route_ID":"COL4,COL5,COL6,SVN1,SVN2,SVN3","STOP_TYPE":"From Location","STOP_TYPE_LOCATION":"City","Departure_Desc":"DP"}},{"type":"Feature","id":131,"geometry":{"type":"Point","coordinates":[28.196092289495116,-25.744411206169755]},"properties":{"OBJECTID":131,"Route_Label":"EASTLYNNE 1, EASTLYNNE 2","Route_description":"DEPARTURE POINT IN TOWN","Status":"Approved","Route_ID":"ELN1,ELN2","STOP_TYPE":"From Location","STOP_TYPE_LOCATION":"City","Departure_Desc":"DP"}},{"type":"Feature","id":132,"geometry":{"type":"Point","coordinates":[28.186738774270786,-25.745068024066956]},"properties":{"OBJECTID":132,"Route_Label":"SUNNYSIDE 3","Route_description":"DEPARTURE POINT IN TOWN","Status":"Approved","Route_ID":"SUN3","STOP_TYPE":"From Location","STOP_TYPE_LOCATION":"City","Departure_Desc":"DP"}},{"type":"Feature","id":133,"geometry":{"type":"Point","coordinates":[28.190704826037912,-25.7486310113235]},"properties":{"OBJECTID":133,"Route_Label":"INOVATION HUB (MURRYFIELD 2)","Route_description":"DEPARTURE POINT IN TOWN","Status":"Approved","Route_ID":"SCA","STOP_TYPE":"From Location","STOP_TYPE_LOCATION":"City","Departure_Desc":"DP"}},{"type":"Feature","id":134,"geometry":{"type":"Point","coordinates":[28.188580460492023,-25.747985209226847]},"properties":{"OBJECTID":134,"Route_Label":"CENTURION","Route_description":"DEPARTURE POINT IN TOWN","Status":"Approved","Route_ID":"CEN","STOP_TYPE":"From Location","STOP_TYPE_LOCATION":"City","Departure_Desc":"DP"}},{"type":"Feature","id":135,"geometry":{"type":"Point","coordinates":[28.189106221464844,-25.747950263833015]},"properties":{"OBJECTID":135,"Route_Label":"WEST PARK 1, WEST PARK 2","Route_description":"DEPARTURE POINT IN TOWN","Status":"Approved","Route_ID":"WPK1,WPK2","STOP_TYPE":"From Location","STOP_TYPE_LOCATION":"City","Departure_Desc":"DP"}},{"type":"Feature","id":136,"geometry":{"type":"Point","coordinates":[28.189627579345821,-25.747825809205857]},"properties":{"OBJECTID":136,"Route_Label":"THERESAPARK","Route_description":"DEPARTURE POINT IN TOWN","Status":"Approved","Route_ID":"TRP","STOP_TYPE":"From Location","STOP_TYPE_LOCATION":"City","Departure_Desc":"DP"}},{"type":"Feature","id":137,"geometry":{"type":"Point","coordinates":[28.101985112838868,-25.906790037808857]},"properties":{"OBJECTID":137,"Route_Label":"ROUTE 4, ROUTE 7, OLIEVENHOUTBOSCH","Route_description":"DEPARTURE POINT IN OLIEVENHOUTBOS","Status":"Approved","Route_ID":"ROUTE4,ROUTE7,OLIV","STOP_TYPE":"From Location","STOP_TYPE_LOCATION":"Olievenhoutbos","Departure_Desc":"DP"}},{"type":"Feature","id":144,"geometry":{"type":"Point","coordinates":[28.195234369689381,-25.871636335257701]},"properties":{"OBJECTID":144,"Route_Label":"OLIEVENHOUTBOSCH","Route_description":"Waterberg, Serenade, Symphony, Samrand, Ikati, Cycad, Legong, Umhlume, Bohlale, Waterberg, Marudi, Waterberg, R55, N14, John Voster, Olivenhoutbosh, Jean avenue, Nellmapius, Main, Botha Avenue, Cantoment, Jean","Status":"Approved","Route_ID":"OLIV","STOP_TYPE":"To Location","STOP_TYPE_LOCATION":"Olievenhoutbos","Departure_Desc":"T"}},{"type":"Feature","id":147,"geometry":{"type":"Point","coordinates":[28.186668579763026,-25.745072792232421]},"properties":{"OBJECTID":147,"Route_Label":"EASTLYNNE 2","Route_description":"DEPARTURE POINT IN TOWN","Status":"Approved","Route_ID":"ELN2","STOP_TYPE":"From Location","STOP_TYPE_LOCATION":"City","Departure_Desc":"DP"}},{"type":"Feature","id":148,"geometry":{"type":"Point","coordinates":[28.185641370431664,-25.747427971913528]},"properties":{"OBJECTID":148,"Route_Label":"MURRYFIELD, SILVERTON 1, SILVERTON 2","Route_description":"DEPARTURE POINT IN TOWN","Status":"Approved","Route_ID":"MRF,SVN1,SVN2","STOP_TYPE":"From Location","STOP_TYPE_LOCATION":"City","Departure_Desc":"DP"}},{"type":"Feature","id":150,"geometry":{"type":"Point","coordinates":[28.189322896443684,-25.744890214583062]},"properties":{"OBJECTID":150,"Route_Label":"INOVATION HUB (MURRYFIELD 2)","Route_description":"DEPARTURE POINT IN TOWN","Status":"Approved","Route_ID":"SCA","STOP_TYPE":"From Location","STOP_TYPE_LOCATION":"City","Departure_Desc":"DP"}},{"type":"Feature","id":151,"geometry":{"type":"Point","coordinates":[28.097171607621625,-25.75437430174744]},"properties":{"OBJECTID":151,"Route_Label":"WEST PARK 6","Route_description":"Pretorius, Kgosi Mampuru (Potgieter), WF Nkomo (Church) and Mhiri up to Manhatting flats.","Status":"Approved","Route_ID":"WPK6","STOP_TYPE":"To Location","STOP_TYPE_LOCATION":"City","Departure_Desc":"T"}},{"type":"Feature","id":156,"geometry":{"type":"Point","coordinates":[28.162033107035022,-25.686407950047993]},"properties":{"OBJECTID":156,"Route_Label":"PRETORIA NORTH 1","Route_description":"Bosman, Boom, Paul Kruger, Rachel de Beer, Jan van Riebeeck, Suider, West, Brits Road, Tolbos, Nunanda, Oxalis, Berg, Grysduiker and Florauna Road.","Status":"Approved","Route_ID":"PNH1","STOP_TYPE":"To Location","STOP_TYPE_LOCATION":"City","Departure_Desc":"T"}},{"type":"Feature","id":158,"geometry":{"type":"Point","coordinates":[28.185672216381018,-25.747238525469449]},"properties":{"OBJECTID":158,"Route_Label":"QUEENSWOOD, MOREGLOED 1","Route_description":"DEPARTURE POINT IN TOWN","Status":"Approved","Route_ID":"QWD,MGD1","STOP_TYPE":"From Location","STOP_TYPE_LOCATION":"City","Departure_Desc":"DP"}},{"type":"Feature","id":159,"geometry":{"type":"Point","coordinates":[28.185557547801899,-25.745870763180779]},"properties":{"OBJECTID":159,"Route_Label":"CAPITAL PARK, MOUNTAIN VIEW 2, MOUNTAIN VIEW 4","Route_description":"DEPARTURE POINT IN TOWN","Status":"Approved","Route_ID":"MNV2,MNV4,CPK","STOP_TYPE":"From Location","STOP_TYPE_LOCATION":"City","Departure_Desc":"DP"}},{"type":"Feature","id":162,"geometry":{"type":"Point","coordinates":[28.193487313638165,-25.744602196867909]},"properties":{"OBJECTID":162,"Route_Label":"MOREGLOED 1, QUEENSWOOD, VILLIERIA 1, VILLIERIA 2, VILLIERIA 3 ","Route_description":"DEPARTURE POINT IN TOWN","Status":"Approved","Route_ID":"MGD1,QWD,VIL1,VIL2,VIL3","STOP_TYPE":"From Location","STOP_TYPE_LOCATION":"City","Departure_Desc":"DP"}}]}