{"type":"FeatureCollection","features":[{"type":"Feature","id":1,"geometry":{"type":"Point","coordinates":[28.183806999215573,-25.681824823588176]},"properties":{"OBJECTID":1,"Label":"HECTOR PIETERSON"}},{"type":"Feature","id":2,"geometry":{"type":"Point","coordinates":[28.186814788939536,-25.706985211770402]},"properties":{"OBJECTID":2,"Label":"MOSES MORUDU"}},{"type":"Feature","id":3,"geometry":{"type":"Point","coordinates":[28.188760999356617,-25.72806247568359]},"properties":{"OBJECTID":3,"Label":"ENOCH SONTONGA"}},{"type":"Feature","id":4,"geometry":{"type":"Point","coordinates":[28.187311495283115,-25.738458151146389]},"properties":{"OBJECTID":4,"Label":"ANTON LEMBEDE"}},{"type":"Feature","id":5,"geometry":{"type":"Point","coordinates":[28.18775905503739,-25.742780992422148]},"properties":{"OBJECTID":5,"Label":"RIVONIA TRIAL"}},{"type":"Feature","id":6,"geometry":{"type":"Point","coordinates":[28.188159081187191,-25.747523035914625]},"properties":{"OBJECTID":6,"Label":"MOLEFE MAKINTA"}},{"type":"Feature","id":7,"geometry":{"type":"Point","coordinates":[28.189233166929085,-25.750693503642928]},"properties":{"OBJECTID":7,"Label":"CENTRAL"}},{"type":"Feature","id":8,"geometry":{"type":"Point","coordinates":[28.187933074012783,-25.756897391732085]},"properties":{"OBJECTID":8,"Label":"PRETORIA STATION"}},{"type":"Feature","id":9,"geometry":{"type":"Point","coordinates":[28.187222798102272,-25.75530236762167]},"properties":{"OBJECTID":9,"Label":"LAND AFFAIRS"}},{"type":"Feature","id":10,"geometry":{"type":"Point","coordinates":[28.188488165989888,-25.752883402140998]},"properties":{"OBJECTID":10,"Label":"CITY HALL"}},{"type":"Feature","id":11,"geometry":{"type":"Point","coordinates":[28.183806999215573,-25.681824823588176]},"properties":{"OBJECTID":11,"Label":"HECTOR PIETERSON"}},{"type":"Feature","id":12,"geometry":{"type":"Point","coordinates":[28.172374097092604,-25.706666237625715]},"properties":{"OBJECTID":12,"Label":"LOWER FRED NICHOLSON SOUTH"}},{"type":"Feature","id":13,"geometry":{"type":"Point","coordinates":[28.16963327006162,-25.717949863269105]},"properties":{"OBJECTID":13,"Label":"MOOT SOUTH"}},{"type":"Feature","id":14,"geometry":{"type":"Point","coordinates":[28.171334328269914,-25.722183021756347]},"properties":{"OBJECTID":14,"Label":"PPC SOUTH"}},{"type":"Feature","id":15,"geometry":{"type":"Point","coordinates":[28.17182461282103,-25.737380925058449]},"properties":{"OBJECTID":15,"Label":"TSHWANE MARKET SOUTH"}},{"type":"Feature","id":16,"geometry":{"type":"Point","coordinates":[28.171614570782697,-25.738953893728539]},"properties":{"OBJECTID":16,"Label":"TSHWANE MARKET NORTH"}},{"type":"Feature","id":17,"geometry":{"type":"Point","coordinates":[28.170224704718375,-25.721089684852476]},"properties":{"OBJECTID":17,"Label":"PPC NORTH"}},{"type":"Feature","id":18,"geometry":{"type":"Point","coordinates":[28.169761646764872,-25.715218329535144]},"properties":{"OBJECTID":18,"Label":"MOOT NORTH"}},{"type":"Feature","id":19,"geometry":{"type":"Point","coordinates":[28.171950587353621,-25.705812269176985]},"properties":{"OBJECTID":19,"Label":"LOWER FRED NICHOLSON NORTH"}},{"type":"Feature","id":20,"geometry":{"type":"Point","coordinates":[28.183269270744361,-25.697501687611332]},"properties":{"OBJECTID":20,"Label":"MAYVILLE EAST"}},{"type":"Feature","id":21,"geometry":{"type":"Point","coordinates":[28.183806999215573,-25.681824823588176]},"properties":{"OBJECTID":21,"Label":"HECTOR PIETERSON"}},{"type":"Feature","id":22,"geometry":{"type":"Point","coordinates":[28.186814788939536,-25.706985211770402]},"properties":{"OBJECTID":22,"Label":"MOSES MORUDU"}},{"type":"Feature","id":23,"geometry":{"type":"Point","coordinates":[28.190074764408926,-25.707973992655781]},"properties":{"OBJECTID":23,"Label":"MIDDLE FRED NICHOLSON EAST"}},{"type":"Feature","id":24,"geometry":{"type":"Point","coordinates":[28.194665240186744,-25.708439646168788]},"properties":{"OBJECTID":24,"Label":"EUGENE MARAIS"}},{"type":"Feature","id":25,"geometry":{"type":"Point","coordinates":[28.198434780752986,-25.70882190544792]},"properties":{"OBJECTID":25,"Label":"UPPER FRED NICHOLSON EAST"}},{"type":"Feature","id":26,"geometry":{"type":"Point","coordinates":[28.202650982734529,-25.709357050702415]},"properties":{"OBJECTID":26,"Label":"LOWER GEZINA SOUTH"}},{"type":"Feature","id":27,"geometry":{"type":"Point","coordinates":[28.203589189340779,-25.71472886288122]},"properties":{"OBJECTID":27,"Label":"BEN SWART"}},{"type":"Feature","id":28,"geometry":{"type":"Point","coordinates":[28.204282036786534,-25.718922233574254]},"properties":{"OBJECTID":28,"Label":"MIDDLE GEZINA SOUTH"}},{"type":"Feature","id":29,"geometry":{"type":"Point","coordinates":[28.205284380613406,-25.725340721627457]},"properties":{"OBJECTID":29,"Label":"UPPER GEZINA SOUTH"}},{"type":"Feature","id":30,"geometry":{"type":"Point","coordinates":[28.204426278656815,-25.73113869575932]},"properties":{"OBJECTID":30,"Label":"STEVE BIKO HOSPITAL"}},{"type":"Feature","id":31,"geometry":{"type":"Point","coordinates":[28.204797536124925,-25.732557293190471]},"properties":{"OBJECTID":31,"Label":"ANNIE BOTHA"}},{"type":"Feature","id":32,"geometry":{"type":"Point","coordinates":[28.205323952079983,-25.736704407834665]},"properties":{"OBJECTID":32,"Label":"HARVEST HOUSE"}},{"type":"Feature","id":33,"geometry":{"type":"Point","coordinates":[28.20551279852695,-25.738976878253439]},"properties":{"OBJECTID":33,"Label":"PENSION HOUSE"}},{"type":"Feature","id":34,"geometry":{"type":"Point","coordinates":[28.205709577722089,-25.741358041016372]},"properties":{"OBJECTID":34,"Label":"LOWER HAMILTON"}},{"type":"Feature","id":35,"geometry":{"type":"Point","coordinates":[28.206173555024293,-25.747047078342163]},"properties":{"OBJECTID":35,"Label":"UPPER HAMILTON"}},{"type":"Feature","id":36,"geometry":{"type":"Point","coordinates":[28.206062923971785,-25.750353359200492]},"properties":{"OBJECTID":36,"Label":"SUNNYSIDE"}},{"type":"Feature","id":37,"geometry":{"type":"Point","coordinates":[28.200372651014618,-25.752141271309942]},"properties":{"OBJECTID":37,"Label":"RUTH MAMPATI"}},{"type":"Feature","id":38,"geometry":{"type":"Point","coordinates":[28.199653763579608,-25.74332403069192]},"properties":{"OBJECTID":38,"Label":"TUT ARCADIA"}},{"type":"Feature","id":39,"geometry":{"type":"Point","coordinates":[28.200176286245057,-25.741490898104452]},"properties":{"OBJECTID":39,"Label":"NELSON MANDELA"}},{"type":"Feature","id":40,"geometry":{"type":"Point","coordinates":[28.203194658546426,-25.739269092470181]},"properties":{"OBJECTID":40,"Label":"ENVIRONMENT HOUSE"}},{"type":"Feature","id":41,"geometry":{"type":"Point","coordinates":[28.20300322589263,-25.736939119906026]},"properties":{"OBJECTID":41,"Label":"SOUTPANSBERG"}},{"type":"Feature","id":42,"geometry":{"type":"Point","coordinates":[28.20392072031272,-25.733687657517539]},"properties":{"OBJECTID":42,"Label":"DR SAVAGE"}},{"type":"Feature","id":43,"geometry":{"type":"Point","coordinates":[28.204028708867984,-25.728215959925226]},"properties":{"OBJECTID":43,"Label":"FLOWERS"}},{"type":"Feature","id":44,"geometry":{"type":"Point","coordinates":[28.203426719863398,-25.724537539374538]},"properties":{"OBJECTID":44,"Label":"UPPER GEZINA NORTH"}},{"type":"Feature","id":45,"geometry":{"type":"Point","coordinates":[28.202558776028383,-25.71947516023522]},"properties":{"OBJECTID":45,"Label":"MIDDLE GEZINA NORTH"}},{"type":"Feature","id":46,"geometry":{"type":"Point","coordinates":[28.201146794494143,-25.710517554076734]},"properties":{"OBJECTID":46,"Label":"LOWER GEZINA NORTH"}},{"type":"Feature","id":47,"geometry":{"type":"Point","coordinates":[28.199350968837187,-25.709002585353705]},"properties":{"OBJECTID":47,"Label":"UPPER FRED NICHOLSON WEST"}},{"type":"Feature","id":48,"geometry":{"type":"Point","coordinates":[28.194924799253819,-25.70856049173501]},"properties":{"OBJECTID":48,"Label":"EUGENE MARAIS WEST"}},{"type":"Feature","id":49,"geometry":{"type":"Point","coordinates":[28.189964163778196,-25.70805583650483]},"properties":{"OBJECTID":49,"Label":"MIDDLE FRED NICHOLSON WEST"}},{"type":"Feature","id":50,"geometry":{"type":"Point","coordinates":[28.18862100623452,-25.739075910811952]},"properties":{"OBJECTID":50,"Label":"PRETORIA ZOO"}},{"type":"Feature","id":51,"geometry":{"type":"Point","coordinates":[28.195078983793078,-25.741255363900382]},"properties":{"OBJECTID":51,"Label":"MENLYN TAXI ASSOCIATION"}},{"type":"Feature","id":52,"geometry":{"type":"Point","coordinates":[28.192410994220729,-25.739717971580248]},"properties":{"OBJECTID":52,"Label":"BLOED STREET MALL"}},{"type":"Feature","id":53,"geometry":{"type":"Point","coordinates":[28.189234041836787,-25.750696757871637]},"properties":{"OBJECTID":53,"Label":"CENTRAL"}},{"type":"Feature","id":54,"geometry":{"type":"Point","coordinates":[28.196492969045035,-25.750183783130154]},"properties":{"OBJECTID":54,"Label":"NANA SITA"}},{"type":"Feature","id":55,"geometry":{"type":"Point","coordinates":[28.200372651014618,-25.752141271309942]},"properties":{"OBJECTID":55,"Label":"RUTH MAMPATI"}},{"type":"Feature","id":56,"geometry":{"type":"Point","coordinates":[28.208421838859657,-25.755698882929824]},"properties":{"OBJECTID":56,"Label":"MAHATMA GHANDI"}},{"type":"Feature","id":57,"geometry":{"type":"Point","coordinates":[28.212807793318831,-25.757110284891525]},"properties":{"OBJECTID":57,"Label":"GENERAL PITSO"}},{"type":"Feature","id":58,"geometry":{"type":"Point","coordinates":[28.222837990694867,-25.755704685588118]},"properties":{"OBJECTID":58,"Label":"LOFTUS VERSVELD"}},{"type":"Feature","id":59,"geometry":{"type":"Point","coordinates":[28.231754546718523,-25.750759495313481]},"properties":{"OBJECTID":59,"Label":"TUKKIES NORTH"}},{"type":"Feature","id":60,"geometry":{"type":"Point","coordinates":[28.233257253986462,-25.747723113550112]},"properties":{"OBJECTID":60,"Label":"ARCADIA"}},{"type":"Feature","id":61,"geometry":{"type":"Point","coordinates":[28.236379213492516,-25.74755578219575]},"properties":{"OBJECTID":61,"Label":"GENERAL M SIYOTHULA"}},{"type":"Feature","id":62,"geometry":{"type":"Point","coordinates":[28.237152318535138,-25.750538485123229]},"properties":{"OBJECTID":62,"Label":"SIPHO KOMANE"}},{"type":"Feature","id":63,"geometry":{"type":"Point","coordinates":[28.232268775198211,-25.750915093373038]},"properties":{"OBJECTID":63,"Label":"TUKKIES SOUTH"}},{"type":"Feature","id":64,"geometry":{"type":"Point","coordinates":[28.203607760815913,-25.755074227173591]},"properties":{"OBJECTID":64,"Label":"RISSIK"}},{"type":"Feature","id":65,"geometry":{"type":"Point","coordinates":[28.20257978657839,-25.757064224987211]},"properties":{"OBJECTID":65,"Label":"JUSTICE MAHOMED"}},{"type":"Feature","id":66,"geometry":{"type":"Point","coordinates":[28.20014866354402,-25.758886629924813]},"properties":{"OBJECTID":66,"Label":"BEREA"}},{"type":"Feature","id":67,"geometry":{"type":"Point","coordinates":[28.199271220593996,-25.762088577120814]},"properties":{"OBJECTID":67,"Label":"MEARS SOUTH"}},{"type":"Feature","id":68,"geometry":{"type":"Point","coordinates":[28.199272157702321,-25.765575805287945]},"properties":{"OBJECTID":68,"Label":"UNISA EAST"}},{"type":"Feature","id":69,"geometry":{"type":"Point","coordinates":[28.204750481612376,-25.765724852925494]},"properties":{"OBJECTID":69,"Label":"SANPARK SOUTH"}},{"type":"Feature","id":70,"geometry":{"type":"Point","coordinates":[28.207075110358716,-25.767079532370317]},"properties":{"OBJECTID":70,"Label":"PRELLER EAST"}},{"type":"Feature","id":71,"geometry":{"type":"Point","coordinates":[28.210056005855844,-25.7694759155222]},"properties":{"OBJECTID":71,"Label":"TUKS GROENKLOOF SOUTH"}},{"type":"Feature","id":72,"geometry":{"type":"Point","coordinates":[28.215117993612193,-25.77019179989809]},"properties":{"OBJECTID":72,"Label":"STEGER NORTH"}},{"type":"Feature","id":73,"geometry":{"type":"Point","coordinates":[28.221363141955131,-25.766328266769566]},"properties":{"OBJECTID":73,"Label":"SIBELIUS"}},{"type":"Feature","id":74,"geometry":{"type":"Point","coordinates":[28.220374448751063,-25.763893740832188]},"properties":{"OBJECTID":74,"Label":"MAGNOLIA DAL"}},{"type":"Feature","id":75,"geometry":{"type":"Point","coordinates":[28.212937182120239,-25.759774799059208]},"properties":{"OBJECTID":75,"Label":"JACARANDA HOSPITAL"}},{"type":"Feature","id":76,"geometry":{"type":"Point","coordinates":[28.208938601700947,-25.759235506863309]},"properties":{"OBJECTID":76,"Label":"RELLY"}},{"type":"Feature","id":77,"geometry":{"type":"Point","coordinates":[28.196049932038285,-25.752456163583417]},"properties":{"OBJECTID":77,"Label":"VAN LENNEP"}},{"type":"Feature","id":78,"geometry":{"type":"Point","coordinates":[28.200213929389459,-25.755685249763616]},"properties":{"OBJECTID":78,"Label":"JOUBERT"}},{"type":"Feature","id":79,"geometry":{"type":"Point","coordinates":[28.20257978657839,-25.757064224987211]},"properties":{"OBJECTID":79,"Label":"JUSTICE MAHOMED"}},{"type":"Feature","id":80,"geometry":{"type":"Point","coordinates":[28.197912660028109,-25.757742974249965]},"properties":{"OBJECTID":80,"Label":"UNISA SUNNYSIDE"}},{"type":"Feature","id":81,"geometry":{"type":"Point","coordinates":[28.193214074235051,-25.756527348681882]},"properties":{"OBJECTID":81,"Label":"MELROSE HOUSE"}},{"type":"Feature","id":82,"geometry":{"type":"Point","coordinates":[28.187933074012783,-25.756897391732085]},"properties":{"OBJECTID":82,"Label":"PRETORIA STATION"}},{"type":"Feature","id":83,"geometry":{"type":"Point","coordinates":[28.184212430524212,-25.755675656691498]},"properties":{"OBJECTID":83,"Label":"BOSMAN TAXI RANK WEST"}},{"type":"Feature","id":84,"geometry":{"type":"Point","coordinates":[28.181163834992287,-25.753729881342537]},"properties":{"OBJECTID":84,"Label":"VISAGIE"}},{"type":"Feature","id":85,"geometry":{"type":"Point","coordinates":[28.180898339998333,-25.750174294035563]},"properties":{"OBJECTID":85,"Label":"UPPER KGOSI MAMPURU"}},{"type":"Feature","id":86,"geometry":{"type":"Point","coordinates":[28.180585963174888,-25.745996323188862]},"properties":{"OBJECTID":86,"Label":"MIDDLE KGOSI MAMPURU"}},{"type":"Feature","id":87,"geometry":{"type":"Point","coordinates":[28.179724759305675,-25.741257997924592]},"properties":{"OBJECTID":87,"Label":"LOWER KGOSI MAMPURU"}},{"type":"Feature","id":88,"geometry":{"type":"Point","coordinates":[28.175223950776317,-25.741509589252644]},"properties":{"OBJECTID":88,"Label":"JERUSALEM"}},{"type":"Feature","id":89,"geometry":{"type":"Point","coordinates":[28.172515934342112,-25.741686168641777]},"properties":{"OBJECTID":89,"Label":"UPPER BLOED"}},{"type":"Feature","id":90,"geometry":{"type":"Point","coordinates":[28.174020722792765,-25.740104236200192]},"properties":{"OBJECTID":90,"Label":"UPPER MARABASTAD"}},{"type":"Feature","id":91,"geometry":{"type":"Point","coordinates":[28.176898812598431,-25.739911246714406]},"properties":{"OBJECTID":91,"Label":"MIDDLE MARABASTAD"}},{"type":"Feature","id":92,"geometry":{"type":"Point","coordinates":[28.179766768066841,-25.739642353641472]},"properties":{"OBJECTID":92,"Label":"LOWER MARABASTAD"}},{"type":"Feature","id":93,"geometry":{"type":"Point","coordinates":[28.182699510491769,-25.73943472353827]},"properties":{"OBJECTID":93,"Label":"BELLE OMBRE STATION NORTH"}},{"type":"Feature","id":94,"geometry":{"type":"Point","coordinates":[28.18862100623452,-25.739075910811952]},"properties":{"OBJECTID":94,"Label":"PRETORIA ZOO"}},{"type":"Feature","id":95,"geometry":{"type":"Point","coordinates":[28.193602966306667,-25.739492179147248]},"properties":{"OBJECTID":95,"Label":"PRINSHOF"}},{"type":"Feature","id":96,"geometry":{"type":"Point","coordinates":[28.196226710640026,-25.740634139584053]},"properties":{"OBJECTID":96,"Label":"TUT ARTS"}},{"type":"Feature","id":97,"geometry":{"type":"Point","coordinates":[28.200489476376461,-25.744853087780239]},"properties":{"OBJECTID":97,"Label":"TUT ARCADIA"}},{"type":"Feature","id":98,"geometry":{"type":"Point","coordinates":[28.197968667121732,-25.748356640799006]},"properties":{"OBJECTID":98,"Label":"UPPER DU TOIT"}},{"type":"Feature","id":99,"geometry":{"type":"Point","coordinates":[28.197796555728218,-25.746308685217372]},"properties":{"OBJECTID":99,"Label":"STANZA BOPAPE"}},{"type":"Feature","id":100,"geometry":{"type":"Point","coordinates":[28.197587401503291,-25.743903088490878]},"properties":{"OBJECTID":100,"Label":"LOWER DU TOIT"}},{"type":"Feature","id":101,"geometry":{"type":"Point","coordinates":[28.196138239702535,-25.742993798470458]},"properties":{"OBJECTID":101,"Label":"RAMO 1"}},{"type":"Feature","id":102,"geometry":{"type":"Point","coordinates":[28.194039196955199,-25.743160664802691]},"properties":{"OBJECTID":102,"Label":"LILIAN NGOYI"}},{"type":"Feature","id":103,"geometry":{"type":"Point","coordinates":[28.191622751592941,-25.74333905998208]},"properties":{"OBJECTID":103,"Label":"THABO SEHUME"}},{"type":"Feature","id":104,"geometry":{"type":"Point","coordinates":[28.183725199302973,-25.740912465490347]},"properties":{"OBJECTID":104,"Label":"LOWER BLOED"}},{"type":"Feature","id":105,"geometry":{"type":"Point","coordinates":[28.179724759305675,-25.741257997924592]},"properties":{"OBJECTID":105,"Label":"LOWER KGOSI MAMPURU"}},{"type":"Feature","id":106,"geometry":{"type":"Point","coordinates":[28.175223950776317,-25.741509589252644]},"properties":{"OBJECTID":106,"Label":"JERUSALEM"}},{"type":"Feature","id":107,"geometry":{"type":"Point","coordinates":[28.172515934342112,-25.741686168641777]},"properties":{"OBJECTID":107,"Label":"UPPER BLOED"}},{"type":"Feature","id":108,"geometry":{"type":"Point","coordinates":[28.174020722792765,-25.740104236200192]},"properties":{"OBJECTID":108,"Label":"UPPER MARABASTAD"}},{"type":"Feature","id":109,"geometry":{"type":"Point","coordinates":[28.176898812598431,-25.739911246714406]},"properties":{"OBJECTID":109,"Label":"MIDDLE MARABASTAD"}},{"type":"Feature","id":110,"geometry":{"type":"Point","coordinates":[28.179766768066841,-25.739642353641472]},"properties":{"OBJECTID":110,"Label":"LOWER MARABASTAD"}},{"type":"Feature","id":111,"geometry":{"type":"Point","coordinates":[28.182686727435861,-25.739876164759249]},"properties":{"OBJECTID":111,"Label":"BELLE OMBRE STATION SOUTH"}},{"type":"Feature","id":112,"geometry":{"type":"Point","coordinates":[28.183138102825627,-25.74480660166947]},"properties":{"OBJECTID":112,"Label":"SCHUBART PARK"}},{"type":"Feature","id":113,"geometry":{"type":"Point","coordinates":[28.183264635517435,-25.746510368556972]},"properties":{"OBJECTID":113,"Label":"MADIBA"}},{"type":"Feature","id":114,"geometry":{"type":"Point","coordinates":[28.183546825112021,-25.75020231788055]},"properties":{"OBJECTID":114,"Label":"PRETORIUS"}},{"type":"Feature","id":115,"geometry":{"type":"Point","coordinates":[28.183410121549198,-25.754494882581348]},"properties":{"OBJECTID":115,"Label":"DITSONG MUSEUM"}},{"type":"Feature","id":116,"geometry":{"type":"Point","coordinates":[28.184495138743596,-25.755516312676608]},"properties":{"OBJECTID":116,"Label":"BOSMAN TAXI RANK EAST"}},{"type":"Feature","id":117,"geometry":{"type":"Point","coordinates":[28.187933074012783,-25.756897391732085]},"properties":{"OBJECTID":117,"Label":"PRETORIA STATION"}},{"type":"Feature","id":118,"geometry":{"type":"Point","coordinates":[28.187222798102272,-25.75530236762167]},"properties":{"OBJECTID":118,"Label":"LAND AFFAIRS"}},{"type":"Feature","id":119,"geometry":{"type":"Point","coordinates":[28.188488165989888,-25.752883402140998]},"properties":{"OBJECTID":119,"Label":"CITY HALL"}},{"type":"Feature","id":120,"geometry":{"type":"Point","coordinates":[28.220580965361176,-25.763959333182285]},"properties":{"OBJECTID":120,"Label":"MAGNOLIA DAL SOUTH"}},{"type":"Feature","id":121,"geometry":{"type":"Point","coordinates":[28.220155596827254,-25.76777639659425]},"properties":{"OBJECTID":121,"Label":"QUINNS"}},{"type":"Feature","id":122,"geometry":{"type":"Point","coordinates":[28.215223512650006,-25.770372588451242]},"properties":{"OBJECTID":122,"Label":"STEGER SOUTH"}},{"type":"Feature","id":123,"geometry":{"type":"Point","coordinates":[28.209774497180248,-25.768967248946428]},"properties":{"OBJECTID":123,"Label":"TUKS GROENKLOOF NORTH"}},{"type":"Feature","id":124,"geometry":{"type":"Point","coordinates":[28.206522833826284,-25.767178884623632]},"properties":{"OBJECTID":124,"Label":"PRELLER WEST"}},{"type":"Feature","id":125,"geometry":{"type":"Point","coordinates":[28.204558202889707,-25.765589345616021]},"properties":{"OBJECTID":125,"Label":"SANPARK NORTH"}},{"type":"Feature","id":126,"geometry":{"type":"Point","coordinates":[28.199450223909459,-25.765630923545668]},"properties":{"OBJECTID":126,"Label":"UNISA WEST"}},{"type":"Feature","id":127,"geometry":{"type":"Point","coordinates":[28.199187041240194,-25.761810547626521]},"properties":{"OBJECTID":127,"Label":"MEARS NORTH"}},{"type":"Feature","id":128,"geometry":{"type":"Point","coordinates":[28.214417622829306,-25.759763956397947]},"properties":{"OBJECTID":128,"Label":"WALKER"}},{"type":"Feature","id":129,"geometry":{"type":"Point","coordinates":[28.179724759305675,-25.741257997924592]},"properties":{"OBJECTID":129,"Label":"LOWER KGOSI MAMPURU"}},{"type":"Feature","id":130,"geometry":{"type":"Point","coordinates":[28.175223950776317,-25.741509589252644]},"properties":{"OBJECTID":130,"Label":"JERUSALEM"}},{"type":"Feature","id":131,"geometry":{"type":"Point","coordinates":[28.172515934342112,-25.741686168641777]},"properties":{"OBJECTID":131,"Label":"UPPER BLOED"}},{"type":"Feature","id":132,"geometry":{"type":"Point","coordinates":[28.174020722792765,-25.740104236200192]},"properties":{"OBJECTID":132,"Label":"UPPER MARABASTAD"}},{"type":"Feature","id":133,"geometry":{"type":"Point","coordinates":[28.176898812598431,-25.739911246714406]},"properties":{"OBJECTID":133,"Label":"MIDDLE MARABASTAD"}},{"type":"Feature","id":134,"geometry":{"type":"Point","coordinates":[28.179766768066841,-25.739642353641472]},"properties":{"OBJECTID":134,"Label":"LOWER MARABASTAD"}},{"type":"Feature","id":135,"geometry":{"type":"Point","coordinates":[28.182978740677189,-25.697882738434448]},"properties":{"OBJECTID":135,"Label":"MAYVILLE WEST"}},{"type":"Feature","id":136,"geometry":{"type":"Point","coordinates":[28.182699510491769,-25.73943472353827]},"properties":{"OBJECTID":136,"Label":"BELLE OMBRE STATION NORTH"}},{"type":"Feature","id":137,"geometry":{"type":"Point","coordinates":[28.183806999215573,-25.681824823588176]},"properties":{"OBJECTID":137,"Label":"HECTOR PIETERSON"}},{"type":"Feature","id":138,"geometry":{"type":"Point","coordinates":[28.188159081187191,-25.747523035914625]},"properties":{"OBJECTID":138,"Label":"MOLEFE MAKINTA"}}]}